{"fetched_at":"2026-07-16T06:43:17.516Z","source":"https://celestrak.org/NORAD/elements/gp.php?NAME=SENTINEL&FORMAT=JSON","constellation":"sentinel-2","records":[{"OBJECT_NAME":"SENTINEL-2A","OBJECT_ID":"2015-028A","EPOCH":"2026-07-15T22:56:34.749600","CLASSIFICATION_TYPE":"U","MEAN_MOTION":14.30814211,"ECCENTRICITY":0.00012798,"INCLINATION":98.5683,"RA_OF_ASC_NODE":271.3977,"ARG_OF_PERICENTER":94.7392,"MEAN_ANOMALY":265.3937,"EPHEMERIS_TYPE":0,"NORAD_CAT_ID":40697,"ELEMENT_SET_NO":999,"REV_AT_EPOCH":57784,"BSTAR":0.000005846293,"MEAN_MOTION_DOT":-2.8e-7,"MEAN_MOTION_DDOT":0},{"OBJECT_NAME":"SENTINEL-2B","OBJECT_ID":"2017-013A","EPOCH":"2026-07-15T22:46:13.581120","CLASSIFICATION_TYPE":"U","MEAN_MOTION":14.30815055,"ECCENTRICITY":0.00012036,"INCLINATION":98.5691,"RA_OF_ASC_NODE":271.3159,"ARG_OF_PERICENTER":89.8567,"MEAN_ANOMALY":270.2753,"EPHEMERIS_TYPE":0,"NORAD_CAT_ID":42063,"ELEMENT_SET_NO":999,"REV_AT_EPOCH":48875,"BSTAR":0.000022101779,"MEAN_MOTION_DOT":1.4e-7,"MEAN_MOTION_DDOT":0},{"OBJECT_NAME":"SENTINEL-2C","OBJECT_ID":"2024-157A","EPOCH":"2026-07-15T18:34:29.964288","CLASSIFICATION_TYPE":"U","MEAN_MOTION":14.30815758,"ECCENTRICITY":0.00009654,"INCLINATION":98.5684,"RA_OF_ASC_NODE":271.1502,"ARG_OF_PERICENTER":104.1193,"MEAN_ANOMALY":256.0097,"EPHEMERIS_TYPE":0,"NORAD_CAT_ID":60989,"ELEMENT_SET_NO":999,"REV_AT_EPOCH":9707,"BSTAR":0.000033757852,"MEAN_MOTION_DOT":4.5e-7,"MEAN_MOTION_DDOT":0}]}
